{
    "links": {
        "self": "http://www.neowsapp.com/rest/v1/neo/3842908?api_key=iIulBulltgU6a56xZRHN4H3l9WmuAYTsLGpBGhQ2"
    },
    "id": "3842908",
    "neo_reference_id": "3842908",
    "name": "(2019 LH6)",
    "designation": "2019 LH6",
    "nasa_jpl_url": "http://ssd.jpl.nasa.gov/sbdb.cgi?sstr=3842908",
    "absolute_magnitude_h": 24.0,
    "estimated_diameter": {
        "kilometers": {
            "estimated_diameter_min": 0.0421264611,
            "estimated_diameter_max": 0.0941976306
        },
        "meters": {
            "estimated_diameter_min": 42.1264610556,
            "estimated_diameter_max": 94.1976305719
        },
        "miles": {
            "estimated_diameter_min": 0.0261761612,
            "estimated_diameter_max": 0.0585316759
        },
        "feet": {
            "estimated_diameter_min": 138.2101784897,
            "estimated_diameter_max": 309.0473542854
        }
    },
    "is_potentially_hazardous_asteroid": false,
    "close_approach_data": [
        {
            "close_approach_date": "2019-06-12",
            "close_approach_date_full": "2019-Jun-12 15:11",
            "epoch_date_close_approach": 1560352260000,
            "relative_velocity": {
                "kilometers_per_second": "14.8840497236",
                "kilometers_per_hour": "53582.5790049614",
                "miles_per_hour": "33294.1308267217"
            },
            "miss_distance": {
                "astronomical": "0.0303282412",
                "lunar": "11.7976858268",
                "kilometers": "4537040.284366244",
                "miles": "2819186.1053084072"
            },
            "orbiting_body": "Earth"
        },
        {
            "close_approach_date": "2029-06-10",
            "close_approach_date_full": "2029-Jun-10 06:15",
            "epoch_date_close_approach": 1875766500000,
            "relative_velocity": {
                "kilometers_per_second": "15.6662724134",
                "kilometers_per_hour": "56398.580688096",
                "miles_per_hour": "35043.884761445"
            },
            "miss_distance": {
                "astronomical": "0.072838421",
                "lunar": "28.334145769",
                "kilometers": "10896472.63576327",
                "miles": "6770754.131822326"
            },
            "orbiting_body": "Earth"
        }
    ],
    "orbital_data": {
        "orbit_id": "1",
        "orbit_determination_date": "2019-06-19 11:42:14",
        "first_observation_date": "2019-06-09",
        "last_observation_date": "2019-06-11",
        "data_arc_in_days": 2,
        "observations_used": 15,
        "orbit_uncertainty": "8",
        "minimum_orbit_intersection": ".00580879",
        "jupiter_tisserand_invariant": "5.314",
        "epoch_osculation": "2458644.5",
        "eccentricity": ".2733910190329604",
        "semi_major_axis": "1.161635691062994",
        "inclination": "23.25252601241248",
        "ascending_node_longitude": "81.98117667192238",
        "orbital_period": "457.3022599671963",
        "perihelion_distance": ".8440549257382248",
        "perihelion_argument": "259.211480169237",
        "aphelion_distance": "1.479216456387763",
        "perihelion_time": "2458709.673751387137",
        "mean_anomaly": "308.6935610135573",
        "mean_motion": ".7872254994449926",
        "equinox": "J2000",
        "orbit_class": {
            "orbit_class_type": "APO",
            "orbit_class_description": "Near-Earth asteroid orbits which cross the Earth’s orbit similar to that of 1862 Apollo",
            "orbit_class_range": "a (semi-major axis) > 1.0 AU; q (perihelion) < 1.017 AU"
        }
    },
    "is_sentry_object": false
}